[Satellite]
VERSION=1.1
NAME=BEESAT-7
NICKNAME=BEESAT-7
TLE1=1 48084U 21022AN  22332.69847043  .00008084  00000+0  48175-3 0  9991
TLE2=2 48084  97.5108 229.1864 0018056 308.6950  51.2665 15.11309754 91303
STATUS=0
